
    {
        "ARG_OF_PERICENTER": 3.061,
        "BSTAR": 6.7509139e-05,
        "CLASSIFICATION_TYPE": "U",
        "ECCENTRICITY": 0.00786269,
        "ELEMENT_SET_NO": 999,
        "EPHEMERIS_TYPE": 0,
        "EPOCH": "2026-05-21T14:34:17.992416",
        "INCLINATION": 97.9704,
        "MEAN_ANOMALY": 357.1063,
        "MEAN_MOTION": 14.72635475,
        "MEAN_MOTION_DDOT": 0,
        "MEAN_MOTION_DOT": 3.97e-06,
        "NORAD_CAT_ID": 40020,
        "OBJECT_ID": "2014-033L",
        "OBJECT_NAME": "BRITE-CA1 (TORONTO)",
        "RA_OF_ASC_NODE": 271.0313,
        "REV_AT_EPOCH": 63830
    },
    {
        "ARG_OF_PERICENTER": 165.9134,
        "BSTAR": 0.00072159707,
        "CLASSIFICATION_TYPE": "U",
        "ECCENTRICITY": 0.00062834,
        "ELEMENT_SET_NO": 999,
        "EPHEMERIS_TYPE": 0,
        "EPOCH": "2026-05-21T02:42:36.217152",
        "INCLINATION": 98.0488,
        "MEAN_ANOMALY": 194.2297,
        "MEAN_MOTION": 15.59269252,
        "MEAN_MOTION_DDOT": 0,
        "MEAN_MOTION_DOT": 0.00056933,
        "NORAD_CAT_ID": 40021,
        "OBJECT_ID": "2014-033M",
        "OBJECT_NAME": "DUCHIFAT-1",
        "RA_OF_ASC_NODE": 196.5891,
        "REV_AT_EPOCH": 65152
    },
    {
        "ARG_OF_PERICENTER": 266.7816,
        "BSTAR": 0.00037747564,
        "CLASSIFICATION_TYPE": "U",
        "ECCENTRICITY": 0.00016804,
        "ELEMENT_SET_NO": 999,
        "EPHEMERIS_TYPE": 0,
        "EPOCH": "2026-05-21T12:56:22.339680",
        "INCLINATION": 98.074,
        "MEAN_ANOMALY": 93.3231,
        "MEAN_MOTION": 15.30507615,
        "MEAN_MOTION_DDOT": 0,
        "MEAN_MOTION_DOT": 0.00011053,
        "NORAD_CAT_ID": 40024,
        "OBJECT_ID": "2014-033Q",
        "OBJECT_NAME": "NANOSATC-BR1",
        "RA_OF_ASC_NODE": 171.5836,
        "REV_AT_EPOCH": 64990
    },
    {
        "ARG_OF_PERICENTER": 327.3362,
        "BSTAR": 0.00029137509,
        "CLASSIFICATION_TYPE": "U",
        "ECCENTRICITY": 0.00075374,
        "ELEMENT_SET_NO": 999,
        "EPHEMERIS_TYPE": 0,
        "EPOCH": "2026-05-21T10:53:54.553632",
        "INCLINATION": 98.0976,
        "MEAN_ANOMALY": 32.7403,
        "MEAN_MOTION": 15.17791786,
        "MEAN_MOTION_DDOT": 0,
        "MEAN_MOTION_DOT": 5.817e-05,
        "NORAD_CAT_ID": 40025,
        "OBJECT_ID": "2014-033R",
        "OBJECT_NAME": "QB50P1",
        "RA_OF_ASC_NODE": 150.7353,
        "REV_AT_EPOCH": 64897
    },
    {
        "ARG_OF_PERICENTER": 266.1096,
        "BSTAR": 0.00025694764,
        "CLASSIFICATION_TYPE": "U",
        "ECCENTRICITY": 0.00056776,
        "ELEMENT_SET_NO": 999,
        "EPHEMERIS_TYPE": 0,
        "EPOCH": "2026-05-21T06:49:03.096768",
        "INCLINATION": 98.0755,
        "MEAN_ANOMALY": 93.9485,
        "MEAN_MOTION": 15.14768104,
        "MEAN_MOTION_DDOT": 0,
        "MEAN_MOTION_DOT": 4.693e-05,
        "NORAD_CAT_ID": 40032,
        "OBJECT_ID": "2014-033Y",
        "OBJECT_NAME": "QB50P2",
        "RA_OF_ASC_NODE": 136.4993,
        "REV_AT_EPOCH": 64859
    },
    {
        "ARG_OF_PERICENTER": 34.0322,
        "BSTAR": 5.4744158e-05,
        "CLASSIFICATION_TYPE": "U",
        "ECCENTRICITY": 0.00130676,
        "ELEMENT_SET_NO": 999,
        "EPHEMERIS_TYPE": 0,
        "EPOCH": "2026-05-21T13:36:11.741184",
        "INCLINATION": 97.9966,
        "MEAN_ANOMALY": 326.1734,
        "MEAN_MOTION": 14.9541778,
        "MEAN_MOTION_DDOT": 0,
        "MEAN_MOTION_DOT": 5.44e-06,
        "NORAD_CAT_ID": 40037,
        "OBJECT_ID": "2014-033AD",
        "OBJECT_NAME": "PERSEUS-M2",
        "RA_OF_ASC_NODE": 91.5709,
        "REV_AT_EPOCH": 64680
    },
    {
        "ARG_OF_PERICENTER": 33.4876,
        "BSTAR": 9.9392353e-05,
        "CLASSIFICATION_TYPE": "U",
        "ECCENTRICITY": 0.00125459,
        "ELEMENT_SET_NO": 999,
        "EPHEMERIS_TYPE": 0,
        "EPOCH": "2026-05-21T06:34:57.234720",
        "INCLINATION": 97.9636,
        "MEAN_ANOMALY": 326.7135,
        "MEAN_MOTION": 14.95531145,
        "MEAN_MOTION_DDOT": 0,
        "MEAN_MOTION_DOT": 1.042e-05,
        "NORAD_CAT_ID": 40039,
        "OBJECT_ID": "2014-033AF",
        "OBJECT_NAME": "PERSEUS-M1",
        "RA_OF_ASC_NODE": 84.9689,
        "REV_AT_EPOCH": 64661
    },
    {
        "ARG_OF_PERICENTER": 228.6058,
        "BSTAR": 0.00040078606,
        "CLASSIFICATION_TYPE": "U",
        "ECCENTRICITY": 0.00059137,
        "ELEMENT_SET_NO": 999,
        "EPHEMERIS_TYPE": 0,
        "EPOCH": "2026-05-21T11:33:44.328384",
        "INCLINATION": 98.0963,
        "MEAN_ANOMALY": 131.4674,
        "MEAN_MOTION": 15.32223174,
        "MEAN_MOTION_DDOT": 0,
        "MEAN_MOTION_DOT": 0.00012393,
        "NORAD_CAT_ID": 40042,
        "OBJECT_ID": "2014-033AJ",
        "OBJECT_NAME": "POLYITAN-1",
        "RA_OF_ASC_NODE": 165.2371,
        "REV_AT_EPOCH": 64950
    },
    {
        "ARG_OF_PERICENTER": 161.1452,
        "BSTAR": 0.00016969559,
        "CLASSIFICATION_TYPE": "U",
        "ECCENTRICITY": 0.00499427,
        "ELEMENT_SET_NO": 999,
        "EPHEMERIS_TYPE": 0,
        "EPOCH": "2026-05-21T08:48:44.574048",
        "INCLINATION": 97.7802,
        "MEAN_ANOMALY": 199.1628,
        "MEAN_MOTION": 14.85031228,
        "MEAN_MOTION_DDOT": 0,
        "MEAN_MOTION_DOT": 1.425e-05,
        "NORAD_CAT_ID": 40043,
        "OBJECT_ID": "2014-033AK",
        "OBJECT_NAME": "TIGRISAT",
        "RA_OF_ASC_NODE": 292.0012,
        "REV_AT_EPOCH": 64164
    },
    {
        "ARG_OF_PERICENTER": 104.5559,
        "BSTAR": 0.00029471316,
        "CLASSIFICATION_TYPE": "U",
        "ECCENTRICITY": 0.00399345,
        "ELEMENT_SET_NO": 999,
        "EPHEMERIS_TYPE": 0,
        "EPOCH": "2026-05-21T10:29:46.295232",
        "INCLINATION": 97.7226,
        "MEAN_ANOMALY": 256.0098,
        "MEAN_MOTION": 14.97774512,
        "MEAN_MOTION_DDOT": 0,
        "MEAN_MOTION_DOT": 3.456e-05,
        "NORAD_CAT_ID": 40045,
        "OBJECT_ID": "2014-033AM",
        "OBJECT_NAME": "AEROCUBE 6A",
        "RA_OF_ASC_NODE": 308.6815,
        "REV_AT_EPOCH": 64261
    },
    {
        "ARG_OF_PERICENTER": 98.5412,
        "BSTAR": 0.0003729595,
        "CLASSIFICATION_TYPE": "U",
        "ECCENTRICITY": 0.00387689,
        "ELEMENT_SET_NO": 999,
        "EPHEMERIS_TYPE": 0,
        "EPOCH": "2026-05-21T04:45:57.953088",
        "INCLINATION": 97.7184,
        "MEAN_ANOMALY": 262.0207,
        "MEAN_MOTION": 14.99198163,
        "MEAN_MOTION_DDOT": 0,
        "MEAN_MOTION_DOT": 4.553e-05,
        "NORAD_CAT_ID": 40046,
        "OBJECT_ID": "2014-033AN",
        "OBJECT_NAME": "AEROCUBE 6B",
        "RA_OF_ASC_NODE": 308.178,
        "REV_AT_EPOCH": 64271
    },
    {
        "ARG_OF_PERICENTER": 97.2952,
        "BSTAR": 7.6874747e-05,
        "CLASSIFICATION_TYPE": "U",
        "ECCENTRICITY": 0.00141407,
        "ELEMENT_SET_NO": 999,
        "EPHEMERIS_TYPE": 0,
        "EPOCH": "2026-05-21T03:08:53.261664",
        "INCLINATION": 98.3155,
        "MEAN_ANOMALY": 262.9867,
        "MEAN_MOTION": 14.81207409,
        "MEAN_MOTION_DDOT": 0,
        "MEAN_MOTION_DOT": 5.42e-06,
        "NORAD_CAT_ID": 40055,
        "OBJECT_ID": "2014-034C",
        "OBJECT_NAME": "CANX-4",
        "RA_OF_ASC_NODE": 15.4472,
        "REV_AT_EPOCH": 64052
    }